     3.00           N                   E                   RINEX VERSION / TYPE
BRD_USR             ESA                 20190105 001826  UTCPGM / RUN BY / DATE
 GAL   4.1500E+01 -7.8125E-03 -2.7466E-04  0.0000E+00       IONOSPHERIC CORR
GAUT -9.3132257462E-10 0.000000000E+00 432000 2034 GSTB   0 TIME SYSTEM CORR
GPGA -3.2014213502E-09-1.332267630E-15 518400 2034 GSTB   0 TIME SYSTEM CORR
                                                            END OF HEADER
E14 2019 01 04 22 20 00 6.464698293712E-03-5.627498467220E-12 0.000000000000E+00
     8.600000000000E+01-2.262500000000E+01 6.531700642978E-09 1.182859295066E-01
    -2.201646566391E-06 1.663822066039E-01 5.276873707771E-06 5.289317537308E+03
     5.124000000000E+05-3.596767783165E-06-1.339867301228E+00-1.456588506699E-06
     8.825516575447E-01 2.652812500000E+02 1.452085173816E+00-1.071330339495E-08
    -1.139333172086E-10 2.580000000000E+02 2.034000000000E+03 0.000000000000E+00
     3.120000000000E+00 5.600000000000E+01 3.306195139885E-08 0.000000000000E+00
     5.131000000000E+05 0.000000000000E+00 0.000000000000E+00 0.000000000000E+00
E21 2019 01 04 22 20 00-5.128186894581E-04-2.003730514843E-12 0.000000000000E+00
     8.600000000000E+01 2.108750000000E+02 2.592607992529E-09-6.220957195952E-01
     9.752810001373E-06 4.530150908977E-05 1.041404902935E-05 5.440635240555E+03
     5.124000000000E+05 4.284083843231E-08-2.827970180858E+00 1.788139343262E-07
     9.899165495634E-01 1.308125000000E+02-3.739229085100E-01-5.323436028193E-09
     4.428755904031E-11 2.580000000000E+02 2.034000000000E+03 0.000000000000E+00
     3.120000000000E+00 0.000000000000E+00-2.561137080193E-09 0.000000000000E+00
     5.131000000000E+05 0.000000000000E+00 0.000000000000E+00 0.000000000000E+00
E26 2019 01 04 22 20 00 5.056714231614E-03-4.341416115494E-11 0.000000000000E+00
     8.600000000000E+01-2.195937500000E+02 2.804045371173E-09-9.856673855058E-01
    -1.019425690174E-05 3.230243455619E-04 5.159527063370E-06 5.440611003876E+03
     5.124000000000E+05 6.332993507385E-08-7.360174645731E-01 2.607703208923E-08
     9.783626961391E-01 2.383750000000E+02-2.115806463078E+00-5.610948004220E-09
    -3.593006806013E-10 2.580000000000E+02 2.034000000000E+03 0.000000000000E+00
     3.120000000000E+00 0.000000000000E+00 1.164153218269E-09 0.000000000000E+00
     5.131000000000E+05 0.000000000000E+00 0.000000000000E+00 0.000000000000E+00
E27 2019 01 04 22 20 00 5.562845617533E-04-7.759126674500E-12 0.000000000000E+00
     8.600000000000E+01 2.083750000000E+02 2.402957235671E-09 7.154362230990E-01
     9.646639227867E-06 2.093035727739E-04 9.618699550629E-06 5.440638774872E+03
     5.124000000000E+05 2.980232238770E-08-2.827955070377E+00 5.587935447693E-09
     9.898901336517E-01 1.493437500000E+02-9.246292908413E-01-5.170215360223E-09
     8.178912113090E-11 2.580000000000E+02 2.034000000000E+03 0.000000000000E+00
     3.120000000000E+00 0.000000000000E+00-2.793967723846E-09 0.000000000000E+00
     5.131000000000E+05 0.000000000000E+00 0.000000000000E+00 0.000000000000E+00
E30 2019 01 04 22 20 00 5.214511242229E-03-3.056754849240E-11 0.000000000000E+00
     8.600000000000E+01 1.956250000000E+02 2.479031833055E-09 6.660046907972E-02
     9.121373295784E-06 2.957497490570E-04 9.283423423767E-06 5.440624525070E+03
     5.124000000000E+05 1.117587089539E-08-2.821946740014E+00 3.725290298462E-09
     9.879044798327E-01 1.534375000000E+02 4.895017344435E-01-5.205573975908E-09
     4.964492505326E-11 2.580000000000E+02 2.034000000000E+03 0.000000000000E+00
     3.120000000000E+00 0.000000000000E+00-3.259629011154E-09 0.000000000000E+00
     5.131000000000E+05 0.000000000000E+00 0.000000000000E+00 0.000000000000E+00
E31 2019 01 04 22 20 00 9.409151971340E-04-9.748646334629E-12 0.000000000000E+00
     8.600000000000E+01 1.757812500000E+02 2.462959735016E-09-1.030272111769E+00
     8.152797818184E-06 2.566415350884E-04 1.053325831890E-05 5.440633451462E+03
     5.124000000000E+05-1.303851604462E-08-2.828002575716E+00-4.097819328308E-08
     9.898928298097E-01 1.266250000000E+02-1.535093758405E+00-5.193073455211E-09
     5.607376426879E-11 2.580000000000E+02 2.034000000000E+03 0.000000000000E+00
     3.120000000000E+00 0.000000000000E+00 2.328306436539E-10 0.000000000000E+00
     5.131000000000E+05 0.000000000000E+00 0.000000000000E+00 0.000000000000E+00
E36 2019 01 04 22 20 00 7.634737994522E-04-4.504840944719E-12 0.000000000000E+00
     8.600000000000E+01-1.862500000000E+02 2.634395447430E-09 1.680991761951E+00
    -8.791685104370E-06 3.214321332052E-04 4.816800355911E-06 5.440607469559E+03
     5.124000000000E+05-1.862645149231E-08-7.449691436865E-01 0.000000000000E+00
     9.852498013918E-01 2.468437500000E+02-1.645660093034E+00-5.515229731456E-09
    -3.493002640438E-10 2.580000000000E+02 2.034000000000E+03 0.000000000000E+00
     3.120000000000E+00 5.600000000000E+01 9.313225746155E-10 0.000000000000E+00
     5.131000000000E+05 0.000000000000E+00 0.000000000000E+00 0.000000000000E+00
E08 2019 01 04 22 20 00 6.429808621760E-03-7.688072400924E-12 0.000000000000E+00
     8.600000000000E+01 1.246875000000E+01 3.628365421698E-09 2.131379088517E+00
     6.444752216339E-07 2.332599833608E-04 4.066154360771E-06 5.440601486206E+03
     5.124000000000E+05 5.587935447693E-09 1.356889008468E+00 2.048909664154E-08
     9.581413456787E-01 2.505625000000E+02 5.168227272839E-01-5.712380800732E-09
     2.596536727606E-10 5.210000000000E+02 2.034000000000E+03 0.000000000000E+00
     3.120000000000E+00 0.000000000000E+00-8.614733815193E-09-1.001171767712E-08
     5.131450000000E+05 0.000000000000E+00 0.000000000000E+00 0.000000000000E+00
E08 2019 01 04 22 20 00 6.429809378460E-03-7.688072400924E-12 0.000000000000E+00
     8.600000000000E+01 1.246875000000E+01 3.628365421698E-09 2.131379088517E+00
     6.444752216339E-07 2.332599833608E-04 4.066154360771E-06 5.440601486206E+03
     5.124000000000E+05 5.587935447693E-09 1.356889008468E+00 2.048909664154E-08
     9.581413456787E-01 2.505625000000E+02 5.168227272839E-01-5.712380800732E-09
     2.596536727606E-10 2.580000000000E+02 2.034000000000E+03 0.000000000000E+00
     3.120000000000E+00 0.000000000000E+00-8.614733815193E-09 0.000000000000E+00
     5.133000000000E+05 0.000000000000E+00 0.000000000000E+00 0.000000000000E+00
E30 2019 01 04 22 20 00 5.214511242229E-03-3.056754849240E-11 0.000000000000E+00
     8.600000000000E+01 1.956250000000E+02 2.479031833055E-09 6.660046907972E-02
     9.121373295784E-06 2.957497490570E-04 9.283423423767E-06 5.440624525070E+03
     5.124000000000E+05 1.117587089539E-08-2.821946740014E+00 3.725290298462E-09
     9.879044798327E-01 1.534375000000E+02 4.895017344435E-01-5.205573975908E-09
     4.964492505326E-11 2.580000000000E+02 2.034000000000E+03 0.000000000000E+00
     3.120000000000E+00 0.000000000000E+00-3.259629011154E-09 0.000000000000E+00
     5.133500000000E+05 0.000000000000E+00 0.000000000000E+00 0.000000000000E+00
E18 2019 01 04 21 30 00 5.630676227156E-03-2.852118541341E-11 0.000000000000E+00
     8.100000000000E+01-2.299062500000E+02 5.850243686132E-09 2.824978958113E+00
    -9.410083293915E-06 1.664383187890E-01-1.282989978790E-05 5.289378818512E+03
     5.094000000000E+05 2.536922693253E-06-1.322679527917E+00-1.043081283569E-07
     8.817650713631E-01 6.479687500000E+02 1.436632210687E+00-6.251688979368E-09
    -1.428630936784E-12 5.210000000000E+02 2.034000000000E+03 0.000000000000E+00
     3.120000000000E+00 4.550000000000E+02 1.420266926289E-08 1.583248376846E-08
     5.133850000000E+05 0.000000000000E+00 0.000000000000E+00 0.000000000000E+00
E30 2019 01 04 22 20 00 5.214511125814E-03-3.053912678297E-11 0.000000000000E+00
     8.600000000000E+01 1.956250000000E+02 2.479031833055E-09 6.660046907972E-02
     9.121373295784E-06 2.957497490570E-04 9.283423423767E-06 5.440624525070E+03
     5.124000000000E+05 1.117587089539E-08-2.821946740014E+00 3.725290298462E-09
     9.879044798327E-01 1.534375000000E+02 4.895017344435E-01-5.205573975908E-09
     4.964492505326E-11 5.210000000000E+02 2.034000000000E+03 0.000000000000E+00
     3.120000000000E+00 0.000000000000E+00-3.259629011154E-09-3.958120942116E-09
     5.133850000000E+05 0.000000000000E+00 0.000000000000E+00 0.000000000000E+00
E18 2019 01 04 21 30 00 5.630673898850E-03-2.853539626813E-11 0.000000000000E+00
     8.100000000000E+01-2.299062500000E+02 5.850243686132E-09 2.824978958113E+00
    -9.410083293915E-06 1.664383187890E-01-1.282989978790E-05 5.289378818512E+03
     5.094000000000E+05 2.536922693253E-06-1.322679527917E+00-1.043081283569E-07
     8.817650713631E-01 6.479687500000E+02 1.436632210687E+00-6.251688979368E-09
    -1.428630936784E-12 2.580000000000E+02 2.034000000000E+03 0.000000000000E+00
     3.120000000000E+00 5.600000000000E+01 1.420266926289E-08 0.000000000000E+00
     5.134000000000E+05 0.000000000000E+00 0.000000000000E+00 0.000000000000E+00
E01 2019 01 04 22 30 00-5.138582200743E-04-8.213874025387E-12 0.000000000000E+00
     8.700000000000E+01 1.885625000000E+02 2.442244586433E-09-8.435897808205E-01
     8.810311555862E-06 1.160011161119E-04 1.094676554203E-05 5.440631616592E+03
     5.130000000000E+05 4.097819328308E-08-2.825367327753E+00-1.862645149231E-09
     9.903527229775E-01 1.186562500000E+02-8.798289534132E-01-5.228074913162E-09
     8.607501394126E-11 5.210000000000E+02 2.034000000000E+03 0.000000000000E+00
     3.120000000000E+00 0.000000000000E+00-4.656612873077E-09-5.355104804039E-09
     5.136850000000E+05 0.000000000000E+00 0.000000000000E+00 0.000000000000E+00
